[{"OBJECT_NAME":"STARLINK-36929","OBJECT_ID":"2026-041AD","EPOCH":"2026-03-11T06:00:02.000160","MEAN_MOTION":15.90113566,"ECCENTRICITY":7.209e-5,"INCLINATION":53.1582,"RA_OF_ASC_NODE":54.1942,"ARG_OF_PERICENTER":81.6244,"MEAN_ANOMALY":27.9564,"EPHEMERIS_TYPE":0,"CLASSIFICATION_TYPE":"U","NORAD_CAT_ID":68067,"ELEMENT_SET_NO":999,"REV_AT_EPOCH":262,"BSTAR":-0.0058714895,"MEAN_MOTION_DOT":-0.01594429,"MEAN_MOTION_DDOT":0},{"OBJECT_NAME":"STARLINK-36990","OBJECT_ID":"2026-041AE","EPOCH":"2026-03-11T06:00:02.000160","MEAN_MOTION":15.90464558,"ECCENTRICITY":7.528e-5,"INCLINATION":53.1582,"RA_OF_ASC_NODE":54.1742,"ARG_OF_PERICENTER":85.004,"MEAN_ANOMALY":34.211,"EPHEMERIS_TYPE":0,"CLASSIFICATION_TYPE":"U","NORAD_CAT_ID":68068,"ELEMENT_SET_NO":999,"REV_AT_EPOCH":262,"BSTAR":-0.0057750417,"MEAN_MOTION_DOT":-0.01596645,"MEAN_MOTION_DDOT":0},{"OBJECT_NAME":"STARLINK-36766","OBJECT_ID":"2026-042A","EPOCH":"2026-03-11T06:00:02.000160","MEAN_MOTION":15.97014568,"ECCENTRICITY":6.312e-5,"INCLINATION":53.1599,"RA_OF_ASC_NODE":187.3,"ARG_OF_PERICENTER":90.1406,"MEAN_ANOMALY":311.8108,"EPHEMERIS_TYPE":0,"CLASSIFICATION_TYPE":"U","NORAD_CAT_ID":68069,"ELEMENT_SET_NO":999,"REV_AT_EPOCH":229,"BSTAR":-0.0028527635,"MEAN_MOTION_DOT":-0.01265329,"MEAN_MOTION_DDOT":0.00049330328},{"OBJECT_NAME":"STARLINK-36823","OBJECT_ID":"2026-042B","EPOCH":"2026-03-11T06:00:02.000160","MEAN_MOTION":15.97141605,"ECCENTRICITY":7.098e-5,"INCLINATION":53.1595,"RA_OF_ASC_NODE":187.2958,"ARG_OF_PERICENTER":99.4844,"MEAN_ANOMALY":304.499,"EPHEMERIS_TYPE":0,"CLASSIFICATION_TYPE":"U","NORAD_CAT_ID":68070,"ELEMENT_SET_NO":999,"REV_AT_EPOCH":229,"BSTAR":-0.0028354091,"MEAN_MOTION_DOT":-0.01266466,"MEAN_MOTION_DDOT":0.00049476095},{"OBJECT_NAME":"STARLINK-36970","OBJECT_ID":"2026-042C","EPOCH":"2026-03-11T06:00:02.000160","MEAN_MOTION":15.97382253,"ECCENTRICITY":9.264e-5,"INCLINATION":53.16,"RA_OF_ASC_NODE":187.2875,"ARG_OF_PERICENTER":72.5632,"MEAN_ANOMALY":335.3738,"EPHEMERIS_TYPE":0,"CLASSIFICATION_TYPE":"U","NORAD_CAT_ID":68071,"ELEMENT_SET_NO":999,"REV_AT_EPOCH":230,"BSTAR":-0.0027802834,"MEAN_MOTION_DOT":-0.01258586,"MEAN_MOTION_DDOT":0.00049039556},{"OBJECT_NAME":"STARLINK-36972","OBJECT_ID":"2026-042D","EPOCH":"2026-03-11T06:00:02.000160","MEAN_MOTION":15.9725339,"ECCENTRICITY":6.518e-5,"INCLINATION":53.1599,"RA_OF_ASC_NODE":187.2922,"ARG_OF_PERICENTER":93.8218,"MEAN_ANOMALY":311.9062,"EPHEMERIS_TYPE":0,"CLASSIFICATION_TYPE":"U","NORAD_CAT_ID":68072,"ELEMENT_SET_NO":999,"REV_AT_EPOCH":230,"BSTAR":-0.0028070674,"MEAN_MOTION_DOT":-0.01261622,"MEAN_MOTION_DDOT":0.00049189161},{"OBJECT_NAME":"STARLINK-37074","OBJECT_ID":"2026-042E","EPOCH":"2026-03-11T06:00:02.000160","MEAN_MOTION":15.97512903,"ECCENTRICITY":7.029e-5,"INCLINATION":53.16,"RA_OF_ASC_NODE":187.2837,"ARG_OF_PERICENTER":81.3064,"MEAN_ANOMALY":328.6479,"EPHEMERIS_TYPE":0,"CLASSIFICATION_TYPE":"U","NORAD_CAT_ID":68073,"ELEMENT_SET_NO":999,"REV_AT_EPOCH":230,"BSTAR":-0.0027799657,"MEAN_MOTION_DOT":-0.01267449,"MEAN_MOTION_DDOT":0.00049737596},{"OBJECT_NAME":"STARLINK-37045","OBJECT_ID":"2026-042F","EPOCH":"2026-03-11T06:00:02.000160","MEAN_MOTION":15.97639249,"ECCENTRICITY":8.351e-5,"INCLINATION":53.1597,"RA_OF_ASC_NODE":187.2791,"ARG_OF_PERICENTER":76.4246,"MEAN_ANOMALY":335.6939,"EPHEMERIS_TYPE":0,"CLASSIFICATION_TYPE":"U","NORAD_CAT_ID":68074,"ELEMENT_SET_NO":999,"REV_AT_EPOCH":230,"BSTAR":-0.0027471788,"MEAN_MOTION_DOT":-0.01261398,"MEAN_MOTION_DDOT":0.0004937121},{"OBJECT_NAME":"STARLINK-37026","OBJECT_ID":"2026-042G","EPOCH":"2026-03-11T06:00:02.000160","MEAN_MOTION":15.97777068,"ECCENTRICITY":7.814e-5,"INCLINATION":53.1598,"RA_OF_ASC_NODE":187.2745,"ARG_OF_PERICENTER":81.9993,"MEAN_ANOMALY":332.3348,"EPHEMERIS_TYPE":0,"CLASSIFICATION_TYPE":"U","NORAD_CAT_ID":68075,"ELEMENT_SET_NO":999,"REV_AT_EPOCH":230,"BSTAR":-0.0027362432,"MEAN_MOTION_DOT":-0.01265974,"MEAN_MOTION_DDOT":0.00049769318},{"OBJECT_NAME":"STARLINK-37023","OBJECT_ID":"2026-042H","EPOCH":"2026-03-11T06:00:02.000160","MEAN_MOTION":15.97898323,"ECCENTRICITY":7.592e-5,"INCLINATION":53.1597,"RA_OF_ASC_NODE":187.2703,"ARG_OF_PERICENTER":81.7424,"MEAN_ANOMALY":334.6325,"EPHEMERIS_TYPE":0,"CLASSIFICATION_TYPE":"U","NORAD_CAT_ID":68076,"ELEMENT_SET_NO":999,"REV_AT_EPOCH":230,"BSTAR":-0.0027152464,"MEAN_MOTION_DOT":-0.01264778,"MEAN_MOTION_DDOT":0.00049746883},{"OBJECT_NAME":"STARLINK-37036","OBJECT_ID":"2026-042J","EPOCH":"2026-03-11T06:00:02.000160","MEAN_MOTION":15.98012292,"ECCENTRICITY":0.00010021,"INCLINATION":53.1599,"RA_OF_ASC_NODE":187.2666,"ARG_OF_PERICENTER":64.5473,"MEAN_ANOMALY":353.6171,"EPHEMERIS_TYPE":0,"CLASSIFICATION_TYPE":"U","NORAD_CAT_ID":68077,"ELEMENT_SET_NO":999,"REV_AT_EPOCH":230,"BSTAR":-0.0026905692,"MEAN_MOTION_DOT":-0.01261342,"MEAN_MOTION_DDOT":0.00049560534},{"OBJECT_NAME":"STARLINK-36973","OBJECT_ID":"2026-042K","EPOCH":"2026-03-11T06:00:02.000160","MEAN_MOTION":15.98255549,"ECCENTRICITY":6.13e-5,"INCLINATION":53.1599,"RA_OF_ASC_NODE":187.2584,"ARG_OF_PERICENTER":94.4074,"MEAN_ANOMALY":327.6414,"EPHEMERIS_TYPE":0,"CLASSIFICATION_TYPE":"U","NORAD_CAT_ID":68078,"ELEMENT_SET_NO":999,"REV_AT_EPOCH":230,"BSTAR":-0.0026546771,"MEAN_MOTION_DOT":-0.01261496,"MEAN_MOTION_DDOT":0.00049698261},{"OBJECT_NAME":"STARLINK-37063","OBJECT_ID":"2026-042L","EPOCH":"2026-03-11T06:00:02.000160","MEAN_MOTION":15.98122226,"ECCENTRICITY":9.775e-5,"INCLINATION":53.1593,"RA_OF_ASC_NODE":187.263,"ARG_OF_PERICENTER":74.6753,"MEAN_ANOMALY":345.2289,"EPHEMERIS_TYPE":0,"CLASSIFICATION_TYPE":"U","NORAD_CAT_ID":68079,"ELEMENT_SET_NO":999,"REV_AT_EPOCH":230,"BSTAR":-0.0026604097,"MEAN_MOTION_DOT":-0.01254955,"MEAN_MOTION_DDOT":0.00049161126},{"OBJECT_NAME":"STARLINK-37051","OBJECT_ID":"2026-042M","EPOCH":"2026-03-11T06:00:02.000160","MEAN_MOTION":15.98500769,"ECCENTRICITY":8.382e-5,"INCLINATION":53.1596,"RA_OF_ASC_NODE":187.2502,"ARG_OF_PERICENTER":78.8541,"MEAN_ANOMALY":347.1341,"EPHEMERIS_TYPE":0,"CLASSIFICATION_TYPE":"U","NORAD_CAT_ID":68080,"ELEMENT_SET_NO":999,"REV_AT_EPOCH":230,"BSTAR":-0.0026054123,"MEAN_MOTION_DOT":-0.01255314,"MEAN_MOTION_DDOT":0.00049383345},{"OBJECT_NAME":"STARLINK-37066","OBJECT_ID":"2026-042N","EPOCH":"2026-03-11T06:00:02.000160","MEAN_MOTION":15.98382063,"ECCENTRICITY":6.986e-5,"INCLINATION":53.16,"RA_OF_ASC_NODE":187.2542,"ARG_OF_PERICENTER":77.1381,"MEAN_ANOMALY":346.9735,"EPHEMERIS_TYPE":0,"CLASSIFICATION_TYPE":"U","NORAD_CAT_ID":68081,"ELEMENT_SET_NO":999,"REV_AT_EPOCH":230,"BSTAR":-0.002635953,"MEAN_MOTION_DOT":-0.0126151,"MEAN_MOTION_DDOT":0.00049765566},{"OBJECT_NAME":"STARLINK-37054","OBJECT_ID":"2026-042P","EPOCH":"2026-03-11T06:00:02.000160","MEAN_MOTION":15.98564484,"ECCENTRICITY":8.613e-5,"INCLINATION":53.1597,"RA_OF_ASC_NODE":187.2467,"ARG_OF_PERICENTER":65.1571,"MEAN_ANOMALY":2.5491,"EPHEMERIS_TYPE":0,"CLASSIFICATION_TYPE":"U","NORAD_CAT_ID":68082,"ELEMENT_SET_NO":999,"REV_AT_EPOCH":230,"BSTAR":-0.0025026656,"MEAN_MOTION_DOT":-0.01210665,"MEAN_MOTION_DDOT":0.00046265647}]
