STARLINK-36929          
1 68067U 26041AD  26070.25002315 -.01594429  00000+0 -58715-2 0  9996
2 68067  53.1582  54.1942 0000720  81.6244  27.9564 15.90113566  2622
STARLINK-36990          
1 68068U 26041AE  26070.25002315 -.01596645  00000+0 -57750-2 0  9997
2 68068  53.1582  54.1742 0000752  85.0040  34.2110 15.90464558  2626
STARLINK-36766          
1 68069U 26042A   26070.25002315 -.01265329  49330-3 -28528-2 0  9995
2 68069  53.1599 187.3000 0000631  90.1406 311.8108 15.97014568  2293
STARLINK-36823          
1 68070U 26042B   26070.25002315 -.01266466  49476-3 -28354-2 0  9998
2 68070  53.1595 187.2958 0000709  99.4844 304.4990 15.97141605  2296
STARLINK-36970          
1 68071U 26042C   26070.25002315 -.01258586  49040-3 -27803-2 0  9998
2 68071  53.1600 187.2875 0000926  72.5632 335.3738 15.97382253  2301
STARLINK-36972          
1 68072U 26042D   26070.25002315 -.01261622  49189-3 -28071-2 0  9996
2 68072  53.1599 187.2922 0000651  93.8218 311.9062 15.97253390  2302
STARLINK-37074          
1 68073U 26042E   26070.25002315 -.01267449  49738-3 -27800-2 0  9999
2 68073  53.1600 187.2837 0000702  81.3064 328.6479 15.97512903  2304
STARLINK-37045          
1 68074U 26042F   26070.25002315 -.01261398  49371-3 -27472-2 0  9995
2 68074  53.1597 187.2791 0000835  76.4246 335.6939 15.97639249  2305
STARLINK-37026          
1 68075U 26042G   26070.25002315 -.01265974  49769-3 -27362-2 0  9999
2 68075  53.1598 187.2745 0000781  81.9993 332.3348 15.97777068  2306
STARLINK-37023          
1 68076U 26042H   26070.25002315 -.01264778  49747-3 -27152-2 0  9994
2 68076  53.1597 187.2703 0000759  81.7424 334.6325 15.97898323  2300
STARLINK-37036          
1 68077U 26042J   26070.25002315 -.01261342  49561-3 -26906-2 0  9999
2 68077  53.1599 187.2666 0001002  64.5473 353.6171 15.98012292  2300
STARLINK-36973          
1 68078U 26042K   26070.25002315 -.01261496  49698-3 -26547-2 0  9992
2 68078  53.1599 187.2584 0000613  94.4074 327.6414 15.98255549  2301
STARLINK-37063          
1 68079U 26042L   26070.25002315 -.01254955  49161-3 -26604-2 0  9994
2 68079  53.1593 187.2630 0000977  74.6753 345.2289 15.98122226  2306
STARLINK-37051          
1 68080U 26042M   26070.25002315 -.01255314  49383-3 -26054-2 0  9991
2 68080  53.1596 187.2502 0000838  78.8541 347.1341 15.98500769  2308
STARLINK-37066          
1 68081U 26042N   26070.25002315 -.01261510  49766-3 -26360-2 0  9992
2 68081  53.1600 187.2542 0000698  77.1381 346.9735 15.98382063  2306
STARLINK-37054          
1 68082U 26042P   26070.25002315 -.01210665  46266-3 -25027-2 0  9999
2 68082  53.1597 187.2467 0000861  65.1571   2.5491 15.98564484  2301
